start=new Date('2022-02-18T00:00:00.000Z').valueOf();
sats=[{"SEMIMAJOR_AXIS":"6925.337","MEAN_ELEMENT_THEORY":"SGP4","PERIOD":"95.592","RCS_SIZE":"LARGE","EPHEMERIS_TYPE":"0","SITE":"AFETR","NORAD_CAT_ID":"47552","CLASSIFICATION_TYPE":"U","MEAN_ANOMALY":"291.5482","OBJECT_NAME":"STARLINK-1940","EPOCH":"2022-02-17T19:50:32.605728","PERIAPSIS":"546.191","LAUNCH_DATE":"2021-02-04","TLE_LINE1":"1 47552U 21009E   22048.82676627  .00002777  00000-0  20520-3 0  9990","MEAN_MOTION":"15.06403878","GP_ID":"196243865","APOAPSIS":"548.213","INCLINATION":"53.0537","MEAN_MOTION_DOT":"0.00002777","OBJECT_ID":"2021-009E","ARG_OF_PERICENTER":"68.5662","BSTAR":"0.00020520000000","DECAY_DATE":null,"TLE_LINE2":"2 47552  53.0537 179.4743 0001460  68.5662 291.5482 15.06403878 57732","REV_AT_EPOCH":"5773","OBJECT_TYPE":"PAYLOAD","RA_OF_ASC_NODE":"179.4743","MEAN_MOTION_DDOT":"0.0000000000000","TIME_SYSTEM":"UTC","FILE":"3305402","ELEMENT_SET_NO":"999","CENTER_NAME":"EARTH","COUNTRY_CODE":"US","REF_FRAME":"TEME","ECCENTRICITY":"0.00014600"},{"OBJECT_ID":"2021-009F","ARG_OF_PERICENTER":"25.0228","BSTAR":"0.00116560000000","MEAN_MOTION_DOT":"0.00104067","GP_ID":"196244115","APOAPSIS":"383.606","INCLINATION":"53.0538","LAUNCH_DATE":"2021-02-04","TLE_LINE1":"1 47553U 21009F   22048.68607225  .00104067  00000-0  11656-2 0  9997","MEAN_MOTION":"15.61905406","OBJECT_NAME":"STARLINK-1951","EPOCH":"2022-02-17T16:27:56.642400","PERIAPSIS":"380.705","NORAD_CAT_ID":"47553","CLASSIFICATION_TYPE":"U","MEAN_ANOMALY":"335.0889","PERIOD":"92.195","RCS_SIZE":"LARGE","EPHEMERIS_TYPE":"0","SITE":"AFETR","MEAN_ELEMENT_THEORY":"SGP4","SEMIMAJOR_AXIS":"6760.290","REF_FRAME":"TEME","ECCENTRICITY":"0.00021460","CENTER_NAME":"EARTH","COUNTRY_CODE":"US","ELEMENT_SET_NO":"999","FILE":"3305402","TIME_SYSTEM":"UTC","RA_OF_ASC_NODE":"161.8391","MEAN_MOTION_DDOT":"0.0000000000000","OBJECT_TYPE":"PAYLOAD","REV_AT_EPOCH":"5797","TLE_LINE2":"2 47553  53.0538 161.8391 0002146  25.0228 335.0889 15.61905406 57972","DECAY_DATE":null},{"REV_AT_EPOCH":"5744","TLE_LINE2":"2 47554  53.0556 199.7497 0001317  90.0664 270.0476 15.06395344 57440","DECAY_DATE":null,"OBJECT_TYPE":"PAYLOAD","MEAN_MOTION_DDOT":"0.0000000000000","RA_OF_ASC_NODE":"199.7497","TIME_SYSTEM":"UTC","FILE":"3305402","ELEMENT_SET_NO":"999","CENTER_NAME":"EARTH","COUNTRY_CODE":"US","REF_FRAME":"TEME","ECCENTRICITY":"0.00013170","SEMIMAJOR_AXIS":"6925.363","MEAN_ELEMENT_THEORY":"SGP4","SITE":"AFETR","PERIOD":"95.592","EPHEMERIS_TYPE":"0","RCS_SIZE":"LARGE","CLASSIFICATION_TYPE":"U","MEAN_ANOMALY":"270.0476","NORAD_CAT_ID":"47554","PERIAPSIS":"546.316","EPOCH":"2022-02-17T18:22:58.229472","OBJECT_NAME":"STARLINK-1953","LAUNCH_DATE":"2021-02-04","MEAN_MOTION":"15.06395344","TLE_LINE1":"1 47554U 21009G   22048.76595173  .00000134  00000-0  27864-4 0  9995","APOAPSIS":"548.140","INCLINATION":"53.0556","GP_ID":"196243364","MEAN_MOTION_DOT":"0.00000134","ARG_OF_PERICENTER":"90.0664","BSTAR":"0.00002786400000","OBJECT_ID":"2021-009G"},{"FILE":"3305402","ELEMENT_SET_NO":"999","TIME_SYSTEM":"UTC","REF_FRAME":"TEME","ECCENTRICITY":"0.00014920","CENTER_NAME":"EARTH","COUNTRY_CODE":"US","OBJECT_TYPE":"PAYLOAD","REV_AT_EPOCH":"5757","TLE_LINE2":"2 47555  53.0538 190.1522 0001492  81.2842 278.8316 15.06401352 57579","DECAY_DATE":null,"MEAN_MOTION_DDOT":"0.0000000000000","RA_OF_ASC_NODE":"190.1522","INCLINATION":"53.0538","APOAPSIS":"548.243","GP_ID":"196243114","LAUNCH_DATE":"2021-02-04","TLE_LINE1":"1 47555U 21009H   22048.67471191  .00002088  00000-0  15903-3 0  9999","MEAN_MOTION":"15.06401352","ARG_OF_PERICENTER":"81.2842","BSTAR":"0.00015903000000","OBJECT_ID":"2021-009H","MEAN_MOTION_DOT":"0.00002088","SITE":"AFETR","PERIOD":"95.592","RCS_SIZE":"LARGE","EPHEMERIS_TYPE":"0","MEAN_ELEMENT_THEORY":"SGP4","SEMIMAJOR_AXIS":"6925.344","PERIAPSIS":"546.176","EPOCH":"2022-02-17T16:11:35.109024","OBJECT_NAME":"STARLINK-1954","CLASSIFICATION_TYPE":"U","MEAN_ANOMALY":"278.8316","NORAD_CAT_ID":"47555"},{"OBJECT_NAME":"STARLINK-1955","PERIAPSIS":"546.140","EPOCH":"2022-02-17T20:13:06.375360","NORAD_CAT_ID":"47556","MEAN_ANOMALY":"289.9031","CLASSIFICATION_TYPE":"U","RCS_SIZE":"LARGE","EPHEMERIS_TYPE":"0","PERIOD":"95.592","SITE":"AFETR","SEMIMAJOR_AXIS":"6925.363","MEAN_ELEMENT_THEORY":"SGP4","ARG_OF_PERICENTER":"70.2127","OBJECT_ID":"2021-009J","BSTAR":"0.00007052000000","MEAN_MOTION_DOT":"0.00000769","GP_ID":"196244366","APOAPSIS":"548.316","INCLINATION":"53.0547","MEAN_MOTION":"15.06395345","TLE_LINE1":"1 47556U 21009J   22048.84243490  .00000769  00000-0  70520-4 0  9999","LAUNCH_DATE":"2021-02-04","RA_OF_ASC_NODE":"209.3937","MEAN_MOTION_DDOT":"0.0000000000000","OBJECT_TYPE":"PAYLOAD","DECAY_DATE":null,"TLE_LINE2":"2 47556  53.0547 209.3937 0001571  70.2127 289.9031 15.06395345 57318","REV_AT_EPOCH":"5731","ECCENTRICITY":"0.00015710","REF_FRAME":"TEME","COUNTRY_CODE":"US","CENTER_NAME":"EARTH","FILE":"3305402","ELEMENT_SET_NO":"999","TIME_SYSTEM":"UTC"},{"FILE":"3305402","ELEMENT_SET_NO":"999","TIME_SYSTEM":"UTC","ECCENTRICITY":"0.00015720","REF_FRAME":"TEME","COUNTRY_CODE":"US","CENTER_NAME":"EARTH","OBJECT_TYPE":"PAYLOAD","TLE_LINE2":"2 47557  53.0529 209.2748 0001572  64.8869 295.2283 15.06390006 57320","REV_AT_EPOCH":"5732","DECAY_DATE":null,"RA_OF_ASC_NODE":"209.2748","MEAN_MOTION_DDOT":"0.0000000000000","GP_ID":"196244616","APOAPSIS":"548.333","INCLINATION":"53.0529","TLE_LINE1":"1 47557U 21009K   22048.87192796  .00000408  00000-0  46316-4 0  9991","MEAN_MOTION":"15.06390006","LAUNCH_DATE":"2021-02-04","ARG_OF_PERICENTER":"64.8869","OBJECT_ID":"2021-009K","BSTAR":"0.00004631600000","MEAN_MOTION_DOT":"0.00000408","RCS_SIZE":"LARGE","EPHEMERIS_TYPE":"0","PERIOD":"95.593","SITE":"AFETR","MEAN_ELEMENT_THEORY":"SGP4","SEMIMAJOR_AXIS":"6925.379","OBJECT_NAME":"STARLINK-1956","PERIAPSIS":"546.156","EPOCH":"2022-02-17T20:55:34.575744","NORAD_CAT_ID":"47557","MEAN_ANOMALY":"295.2283","CLASSIFICATION_TYPE":"U"},{"COUNTRY_CODE":"US","CENTER_NAME":"EARTH","ECCENTRICITY":"0.00015270","REF_FRAME":"TEME","TIME_SYSTEM":"UTC","FILE":"3305402","ELEMENT_SET_NO":"999","RA_OF_ASC_NODE":"179.3541","MEAN_MOTION_DDOT":"0.0000000000000","REV_AT_EPOCH":"5773","TLE_LINE2":"2 47558  53.0560 179.3541 0001527  63.6455 296.4691 15.06401010 57731","DECAY_DATE":null,"OBJECT_TYPE":"PAYLOAD","MEAN_MOTION_DOT":"0.00001463","BSTAR":"0.00011712000000","ARG_OF_PERICENTER":"63.6455","OBJECT_ID":"2021-009L","MEAN_MOTION":"15.06401010","TLE_LINE1":"1 47558U 21009L   22048.85255905  .00001463  00000-0  11712-3 0  9995","LAUNCH_DATE":"2021-02-04","GP_ID":"196242864","APOAPSIS":"548.268","INCLINATION":"53.0560","NORAD_CAT_ID":"47558","MEAN_ANOMALY":"296.4691","CLASSIFICATION_TYPE":"U","OBJECT_NAME":"STARLINK-1957","EPOCH":"2022-02-17T20:27:41.101920","PERIAPSIS":"546.153","SEMIMAJOR_AXIS":"6925.345","MEAN_ELEMENT_THEORY":"SGP4","RCS_SIZE":"LARGE","EPHEMERIS_TYPE":"0","PERIOD":"95.592","SITE":"AFETR"},{"PERIOD":"95.592","EPHEMERIS_TYPE":"0","RCS_SIZE":"LARGE","SITE":"AFETR","SEMIMAJOR_AXIS":"6925.351","MEAN_ELEMENT_THEORY":"SGP4","OBJECT_NAME":"STARLINK-1958","PERIAPSIS":"546.195","EPOCH":"2022-02-17T19:35:57.044544","NORAD_CAT_ID":"47559","CLASSIFICATION_TYPE":"U","MEAN_ANOMALY":"301.8509","GP_ID":"196243615","APOAPSIS":"548.238","INCLINATION":"53.0536","LAUNCH_DATE":"2021-02-04","TLE_LINE1":"1 47559U 21009M   22048.81663246  .00001059  00000-0  89952-4 0  9996","MEAN_MOTION":"15.06399152","OBJECT_ID":"2021-009M","ARG_OF_PERICENTER":"58.2624","BSTAR":"0.00008995200000","MEAN_MOTION_DOT":"0.00001059","OBJECT_TYPE":"PAYLOAD","TLE_LINE2":"2 47559  53.0536 169.5169 0001475  58.2624 301.8509 15.06399152 57879","REV_AT_EPOCH":"5787","DECAY_DATE":null,"RA_OF_ASC_NODE":"169.5169","MEAN_MOTION_DDOT":"0.0000000000000","ELEMENT_SET_NO":"999","FILE":"3305402","TIME_SYSTEM":"UTC","REF_FRAME":"TEME","ECCENTRICITY":"0.00014750","CENTER_NAME":"EARTH","COUNTRY_CODE":"US"},{"RA_OF_ASC_NODE":"169.5596","MEAN_MOTION_DDOT":"0.0000000000000","OBJECT_TYPE":"PAYLOAD","REV_AT_EPOCH":"5848","TLE_LINE2":"2 47560  53.0542 169.5596 0001634  62.9844 297.1311 15.06398963 58480","DECAY_DATE":null,"ECCENTRICITY":"0.00016340","REF_FRAME":"TEME","COUNTRY_CODE":"US","CENTER_NAME":"EARTH","ELEMENT_SET_NO":"999","FILE":"3305246","TIME_SYSTEM":"UTC","OBJECT_NAME":"STARLINK-1959","EPOCH":"2022-02-17T19:25:20.087328","PERIAPSIS":"546.085","NORAD_CAT_ID":"47560","MEAN_ANOMALY":"297.1311","CLASSIFICATION_TYPE":"U","RCS_SIZE":"LARGE","EPHEMERIS_TYPE":"0","PERIOD":"95.592","SITE":"AFETR","SEMIMAJOR_AXIS":"6925.352","MEAN_ELEMENT_THEORY":"SGP4","OBJECT_ID":"2021-009N","ARG_OF_PERICENTER":"62.9844","BSTAR":"0.00020035000000","MEAN_MOTION_DOT":"0.00002704","GP_ID":"196219154","APOAPSIS":"548.348","INCLINATION":"53.0542","MEAN_MOTION":"15.06398963","TLE_LINE1":"1 47560U 21009N   22048.80926027  .00002704  00000-0  20035-3 0  9990","LAUNCH_DATE":"2021-02-04"},{"MEAN_MOTION":"15.06397277","TLE_LINE1":"1 47561U 21009P   22048.86270878  .00002132  00000-0  16201-3 0  9998","LAUNCH_DATE":"2021-02-04","GP_ID":"196244116","INCLINATION":"53.0535","APOAPSIS":"548.043","MEAN_MOTION_DOT":"0.00002132","ARG_OF_PERICENTER":"102.7598","OBJECT_ID":"2021-009P","BSTAR":"0.00016201000000","MEAN_ELEMENT_THEORY":"SGP4","SEMIMAJOR_AXIS":"6925.357","RCS_SIZE":"LARGE","EPHEMERIS_TYPE":"0","PERIOD":"95.592","SITE":"AFETR","NORAD_CAT_ID":"47561","MEAN_ANOMALY":"257.3523","CLASSIFICATION_TYPE":"U","OBJECT_NAME":"STARLINK-1960","PERIAPSIS":"546.401","EPOCH":"2022-02-17T20:42:18.038592","TIME_SYSTEM":"UTC","ELEMENT_SET_NO":"999","FILE":"3305402","COUNTRY_CODE":"US","CENTER_NAME":"EARTH","ECCENTRICITY":"0.00011860","REF_FRAME":"TEME","DECAY_DATE":null,"TLE_LINE2":"2 47561  53.0535 189.3203 0001186 102.7598 257.3523 15.06397277 57602","REV_AT_EPOCH":"5760","OBJECT_TYPE":"PAYLOAD","RA_OF_ASC_NODE":"189.3203","MEAN_MOTION_DDOT":"0.0000000000000"}];
